{
    "links": {
        "self": "http://www.neowsapp.com/rest/v1/neo/3838101?api_key=iIulBulltgU6a56xZRHN4H3l9WmuAYTsLGpBGhQ2"
    },
    "id": "3838101",
    "neo_reference_id": "3838101",
    "name": "(2019 CY)",
    "designation": "2019 CY",
    "nasa_jpl_url": "http://ssd.jpl.nasa.gov/sbdb.cgi?sstr=3838101",
    "absolute_magnitude_h": 25.8,
    "estimated_diameter": {
        "kilometers": {
            "estimated_diameter_min": 0.0183888672,
            "estimated_diameter_max": 0.0411187571
        },
        "meters": {
            "estimated_diameter_min": 18.388867207,
            "estimated_diameter_max": 41.1187571041
        },
        "miles": {
            "estimated_diameter_min": 0.0114263088,
            "estimated_diameter_max": 0.0255500032
        },
        "feet": {
            "estimated_diameter_min": 60.3309310875,
            "estimated_diameter_max": 134.9040630575
        }
    },
    "is_potentially_hazardous_asteroid": false,
    "close_approach_data": [
        {
            "close_approach_date": "2019-02-10",
            "close_approach_date_full": "2019-Feb-10 21:30",
            "epoch_date_close_approach": 1549834200000,
            "relative_velocity": {
                "kilometers_per_second": "4.9079847888",
                "kilometers_per_hour": "17668.7452396916",
                "miles_per_hour": "10978.6711740739"
            },
            "miss_distance": {
                "astronomical": "0.0917410251",
                "lunar": "35.6872587639",
                "kilometers": "13724261.946576537",
                "miles": "8527860.9314367306"
            },
            "orbiting_body": "Earth"
        }
    ],
    "orbital_data": {
        "orbit_id": "1",
        "orbit_determination_date": "2019-02-06 21:02:56",
        "first_observation_date": "2019-01-08",
        "last_observation_date": "2019-02-06",
        "data_arc_in_days": 29,
        "observations_used": 16,
        "orbit_uncertainty": "8",
        "minimum_orbit_intersection": ".0874593",
        "jupiter_tisserand_invariant": "3.971",
        "epoch_osculation": "2458505.5",
        "eccentricity": ".4032926101943397",
        "semi_major_axis": "1.794827361988212",
        "inclination": "4.405559398750388",
        "ascending_node_longitude": "126.6388786062378",
        "orbital_period": "878.2789002745607",
        "perihelion_distance": "1.070986750323765",
        "perihelion_argument": "20.52468177432954",
        "aphelion_distance": "2.518667973652659",
        "perihelion_time": "2458529.236998107100",
        "mean_anomaly": "350.2703807231568",
        "mean_motion": ".4098925749980554",
        "equinox": "J2000",
        "orbit_class": {
            "orbit_class_type": "AMO",
            "orbit_class_description": "Near-Earth asteroid orbits similar to that of 1221 Amor",
            "orbit_class_range": "1.017 AU < q (perihelion) < 1.3 AU"
        }
    },
    "is_sentry_object": false
}